CUTE-1 (CO-55)          
1 27844U 03031E   22341.74092667  .00000294  00000+0  15108-3 0  9997
2 27844  98.6793 346.8297 0009198 325.5174  34.5407 14.22553008  8519
CUBESAT XI-IV (CO-57)   
1 27848U 03031J   22341.75859093  .00000283  00000+0  14765-3 0  9992
2 27848  98.6834 347.3261 0009334 341.0226  19.0603 14.22096193  8297
CUBESAT XI-V            
1 28895U 05043F   22341.65075550  .00001160  00000+0  22667-3 0  9992
2 28895  98.1293 110.6397 0015610 319.0322  40.9707 14.64703661912766
CUTE-1.7+APD II (CO-65) 
1 32785U 08021C   22342.03888435  .00003226  00000+0  33686-3 0  9999
2 32785  97.6812 307.6792 0013352  24.8713 335.3146 14.90332067792405
AAUSAT-II               
1 32788U 08021F   22341.88675089  .00007756  00000+0  64074-3 0  9990
2 32788  97.5495 321.4039 0009039 254.2910 105.7316 14.99193751794401
DELFI-C3 (DO-64)        
1 32789U 08021G   22342.02675901  .00024451  00000+0  11780-2 0  9997
2 32789  97.3246   2.4363 0011200  79.8072 280.4425 15.18671416798321
SEEDS II (CO-66)        
1 32791U 08021J   22341.67688132  .00004839  00000+0  46123-3 0  9998
2 32791  97.6334 312.6529 0012050 341.1156  18.9616 14.93763774793048
SWISSCUBE               
1 35932U 09051B   22342.05717285  .00001047  00000+0  24301-3 0  9999
2 35932  98.5440 202.6603 0006522 230.1198 129.9426 14.57114606701413
BEESAT-1                
1 35933U 09051C   22341.53122100  .00000901  00000+0  21086-3 0  9993
2 35933  98.5375 203.6217 0004622 245.5678 114.5037 14.57098798701371
ITUPSAT1                
1 35935U 09051E   22341.38050428  .00000683  00000+0  16557-3 0  9995
2 35935  98.5476 203.4757 0006918 251.5757 108.4688 14.56189622701041
TISAT 1                 
1 36799U 10035E   22341.86677539  .00004392  00000+0  41901-3 0  9991
2 36799  98.1587 199.0549 0010465 244.3035 115.7103 14.93839939673842
M-CUBED & EXP-1 PRIME   
1 37855U 11061F   22342.04463526  .00019920  00000+0  79616-3 0  9992
2 37855 101.7139 193.7861 0142810 260.9524  97.5510 15.16259067607979
AEROCUBE 4.5A           
1 38767U 12048K   22341.84445822  .00005718  00000+0  39860-3 0  9994
2 38767  64.6655 285.7611 0159748 214.7241 144.3367 14.96606160176719
AEROCUBE 4.5B           
1 38768U 12048L   22342.14055116  .00008663  00000+0  53683-3 0  9993
2 38768  64.6658 235.1303 0143407 209.8591 149.4291 15.02112982177218
STRAND-1                
1 39090U 13009E   22341.52995927  .00000328  00000+0  12898-3 0  9997
2 39090  98.3921 175.0902 0010024 113.0207 247.2037 14.35380585512229
BRITE-AUSTRIA           
1 39091U 13009F   22341.51806472  .00000179  00000+0  77319-4 0  9997
2 39091  98.3942 174.2753 0011448 119.5310 240.7018 14.35336926512255
SOMP                    
1 39134U 13015E   22342.04528251  .00032343  00000+0  93827-3 0  9996
2 39134  64.8583 209.8923 0029894 254.6399 105.1432 15.34939388533818
BEESAT-3                
1 39135U 13015F   22341.76683768  .00018022  00000+0  64302-3 0  9994
2 39135  64.8646 251.6420 0035352 257.2414 102.4766 15.28391061532552
BEESAT-2                
1 39136U 13015G   22341.74589216  .00016582  00000+0  62343-3 0  9998
2 39136  64.8740 261.0323 0025171 289.6976  70.1440 15.27007642532339
NEE-01 PEGASO           
1 39151U 13018B   22341.25243776  .00001555  00000+0  20499-3 0  9992
2 39151  98.0011  86.4667 0017638  57.9547 302.3376 14.81448256519258
ESTCUBE 1               
1 39161U 13021C   22342.17340801  .00001101  00000+0  17763-3 0  9993
2 39161  97.8936  54.7929 0008470 218.7826 141.2773 14.73333931515040
POPACS 1                
1 39268U 13055D   22341.62291227  .00017921  00000+0  43179-3 0  9991
2 39268  80.9966  52.4254 0546629  35.3669 328.2520 14.56801798478453
POPACS 2                
1 39269U 13055E   22341.64534526  .00019447  00000+0  52305-3 0  9992
2 39269  81.0101 114.7555 0632669 196.9229 160.9975 14.36444207475019
POPACS 3                
1 39270U 13055F   22341.44255914  .00005185  00000+0  15699-3 0  9992
2 39270  81.0120 151.0775 0679867 299.6404  53.8712 14.23931013453238
ZACUBE-1 (TSHEPISOSAT)  
1 39417U 13066B   22342.14861853  .00002165  00000+0  26501-3 0  9999
2 39417  97.6607 306.0922 0056251 193.5530 166.4177 14.83096033488861
WNISAT-1                
1 39423U 13066H   22341.96991117  .00000802  00000+0  16684-3 0  9999
2 39423  97.7250 210.4313 0173442 315.9150  42.8329 14.53690134479657
TRITON-1                
1 39427U 13066M   22341.79908341  .00002198  00000+0  34436-3 0  9996
2 39427  97.8262 270.1901 0112297  70.6107 290.7197 14.69511120484421
DELFI-N3XT              
1 39428U 13066N   22341.74311427  .00003232  00000+0  49154-3 0  9998
2 39428  97.8260 268.8109 0117045  83.3872 278.0641 14.70088143483989
GOMX-1                  
1 39430U 13066Q   22342.20997760  .00001399  00000+0  25551-3 0  9990
2 39430  97.7961 239.3955 0147071 216.4844 142.6282 14.60697524481658
CUBEBUG-2 (LO-74)       
1 39440U 13066AA  22342.12281752  .00003292  00000+0  44500-3 0  9998
2 39440  97.7498 292.6390 0076345 288.5889  70.7041 14.77693585487126
NEE-02 KRYSAOR          
1 39441U 13066AB  22342.14756192  .00002077  00000+0  29266-3 0  9998
2 39441  97.7610 289.7306 0078756 303.5775  55.7934 14.76226836486816
FUNCUBE-1 (AO-73)       
1 39444U 13066AE  22341.62653539  .00002410  00000+0  28574-3 0  9996
2 39444  97.6475 308.0309 0055184 182.0694 178.0301 14.84335092487200
UWE-3                   
1 39446U 13066AG  22341.64001921  .00002378  00000+0  30765-3 0  9990
2 39446  97.7100 298.4992 0066180 244.2278 115.2096 14.80285837486070
AEROCUBE 5A             
1 39465U 13072D   22341.96845191  .00086180  00000+0  32919-2 0  9993
2 39465 120.4802 247.7809 0165672  99.4765 262.5071 15.14148452175720
BRITE-CA1 (TORONTO)     
1 40020U 14033L   22341.64690080  .00000692  00000+0  12392-3 0  9998
2 40020  97.7987 132.0549 0087709  71.4923 289.5788 14.67307735453053
DUCHIFAT-1              
1 40021U 14033M   22341.40243738  .00004511  00000+0  42562-3 0  9993
2 40021  98.0341 295.0734 0011439 182.8475 177.2681 14.94246911460516
NANOSATC-BR1            
1 40024U 14033Q   22341.61888325  .00004160  00000+0  40679-3 0  9993
2 40024  98.0062 287.7022 0010774 188.2351 171.8693 14.92872514459806
QB50P1                  
1 40025U 14033R   22341.61569319  .00002883  00000+0  29403-3 0  9995
2 40025  97.9773 280.5802 0010957 200.4978 159.5802 14.91441219459567
QB50P2                  
1 40032U 14033Y   22341.57681709  .00003500  00000+0  36135-3 0  9993
2 40032  97.9516 275.2301 0010479 197.6265 162.4590 14.90800919459405
PERSEUS-M2              
1 40037U 14033AD  22341.75204384  .00001260  00000+0  14501-3 0  9992
2 40037  97.9015 263.0350 0012958 225.7578 134.2575 14.87475685458882
PERSEUS-M1              
1 40039U 14033AF  22341.72555951  .00001315  00000+0  15255-3 0  9998
2 40039  97.8897 260.4332 0012802 225.0047 135.0132 14.87078155458759
POLYITAN-1              
1 40042U 14033AJ  22341.81892438  .00004313  00000+0  43404-3 0  9994
2 40042  97.9884 282.2391 0013080 192.3641 167.7258 14.91677777459484
TIGRISAT                
1 40043U 14033AK  22341.46446245  .00001284  00000+0  19129-3 0  9998
2 40043  97.6540 161.4571 0057866 316.8087  42.8591 14.75412758455135
AEROCUBE 6A             
1 40045U 14033AM  22341.81227638  .00003059  00000+0  43161-3 0  9997
2 40045  97.6552 171.0474 0055451 302.0912  57.4922 14.76863049455360
AEROCUBE 6B             
1 40046U 14033AN  22341.80329199  .00003607  00000+0  50105-3 0  9997
2 40046  97.6480 169.4495 0054004 299.9247  59.6607 14.77469982455377
UKUBE-1                 
1 40074U 14037F   22341.43642676  .00002453  00000+0  28630-3 0  9995
2 40074  98.3595 230.9991 0005353  85.8395 274.3413 14.86167116455754
BRITE-PL2 (HEWELIUSZ)   
1 40119U 14049B   22341.68043613  .00001256  00000+0  15132-3 0  9994
2 40119  97.8850  75.5720 0017854  39.2272 321.0233 14.85538819449722
FIREBIRD 4              
1 40378U 15003C   22341.70692180  .00034679  00000+0  83943-3 0  9994
2 40378  99.0801 246.1899 0085489 153.5266 207.0379 15.37251949434973
GRIFEX                  
1 40379U 15003D   22341.93831059  .00019633  00000+0  62049-3 0  9997
2 40379  99.0871 230.1324 0104791 203.0395 156.6122 15.27595309434075
CP10 (EXOCUBE)          
1 40380U 15003E   22341.49673226  .00012262  00000+0  43800-3 0  9995
2 40380  99.0969 221.4288 0115080 232.4057 126.6683 15.22914933433465
TIANWANG 1A (TW-1A)     
1 40928U 15051D   22341.91161903  .00277977  30895-4  83293-3 0  9993
2 40928  97.0109   5.4245 0006046  93.8993 350.4915 15.92284273405456
EXACTVIEW 9             
1 40936U 15052G   22341.54275736  .00001928  00000+0  17575-3 0  9993
2 40936   6.0045  17.8661 0009698  89.1775 270.9464 14.77543141388858
AEROCUBE 5C             
1 40965U 15058B   22341.57681527  .00001131  00000+0  14724-3 0  9992
2 40965  64.7778 285.8259 0170352 141.8584 219.4724 14.76261291174519
AEROCUBE 7              
1 40966U 15058C   22341.84113246  .00001741  00000+0  21390-3 0  9995
2 40966  64.7776 281.7106 0167904 141.3219 220.0054 14.76972994174561
ATHENOXAT 1             
1 41168U 15077C   22341.86234190  .00021968  00000+0  77301-3 0  9991
2 41168  14.9851 240.4005 0007643 174.4106 250.2590 15.26891135386795
GALASSIA                
1 41170U 15077E   22340.93524635  .00014254  00000+0  52815-3 0  9990
2 41170  14.9873 240.5798 0009480 180.3244 179.7073 15.24577159386541
VELOX-II                
1 41171U 15077F   22341.56883056  .00012262  00000+0  53623-3 0  9991
2 41171  14.9924 319.0785 0007073   6.8877 353.1542 15.18824805385945
HORYU-4                 
1 41340U 16012D   22341.27585201  .00004270  00000+0  29048-3 0  9992
2 41340  31.0056 334.5004 0012608 124.1919 235.9914 15.04586269373767
E-ST@R-II               
1 41459U 16025D   22341.60995361  .00012234  00000+0  47581-3 0  9997
2 41459  98.1917 160.2870 0133627  40.3583 320.7515 15.18202333363721
